PACE-1                  
1 48909U 21059AG  26159.47271001  .00074341  00000+0  43035-3 0  9998
2 48909  97.6789 356.6403 0000751 334.7734  25.3495 15.78377969276420
YAM-3                   
1 48915U 21059AN  26159.47248469  .00010527  00000+0  20069-3 0  9995
2 48915  97.6997 345.8601 0005786  40.2754 319.8923 15.48360580275640
FARADAY_PHOENIX         
1 48924U 21059AX  26159.52503691  .00128025  00000+0  80723-3 0  9998
2 48924  97.6835 356.6036 0002545 350.4132   9.7083 15.76276797276290
DEMO8 (TENZING)         
1 48951U 21059CA  26159.48867873  .00018125  00000+0  27482-3 0  9990
2 48951  97.7037 352.2479 0007008  27.8238 332.3389 15.54663088275954
NAPA-2                  
1 48963U 21059CN  26159.36496645  .00244268  25449-4  62698-3 0  9991
2 48963  97.6739 357.3057 0002566 253.8269 106.2724 15.95264426276402
FENGYUN 3E              
1 49008U 21062A   26159.53426060  .00000137  00000+0  85256-4 0  9991
2 49008  98.7497 163.0390 0002743  99.3407 260.8080 14.19904217255359
ISS (NAUKA)             
1 49044U 21066A   26159.28821174  .00006674  00000+0  12624-3 0  9992
2 49044  51.6333 344.1431 0006937 146.3340 213.8090 15.49664883570414
STARLINK-3100           
1 49144U 21082Q   26159.16120383  .00000797  00000+0  74577-4 0  9998
2 49144  70.0004  66.3378 0002948 273.4642  86.6180 14.98328527259531
CUTE                    
1 49263U 21088D   26159.19822689  .00125481  78946-5  41548-3 0  9996
2 49263  97.4199 257.6397 0007897 249.4863 110.5562 15.90362536261123
2021-091B               
1 49316U 21091B   26159.55956525  .00002775  00000+0  13742-3 0  9991
2 49316  97.4481 347.2658 0015070  72.5131 287.7749 15.18511316257678
SDGSAT 1                
1 49387U 21100A   26159.54055088  .00003727  00000+0  17660-3 0  9994
2 49387  97.2639 206.8111 0007191 334.7287  25.3595 15.19887443254606
TEIKYOSAT-4 (OORURI)    
1 49396U 21102B   26159.50304943  .00002438  00000+0  15587-3 0  9993
2 49396  97.3672 189.3240 0011118 329.9080  30.1510 15.09477838251412
Z-SAT                   
1 49399U 21102E   26159.49810730  .00005537  00000+0  27321-3 0  9992
2 49399  97.3333 195.0849 0014899 279.1013  80.8535 15.18204443252127
HIBARI                  
1 49400U 21102F   26159.38219797  .00008905  00000+0  29428-3 0  9991
2 49400  97.3245 205.3871 0010511 224.0979 135.9425 15.31552178252844
KOSEN-1                 
1 49402U 21102H   26159.03159585  .00007809  00000+0  29937-3 0  9990
2 49402  97.3192 201.3673 0012348 235.0844 124.9235 15.26710328252626
GLOBAL-14               
1 49469U 21106A   26158.80958062  .00028961  00000+0  50179-3 0  9992
2 49469  42.0063 346.7937 0017190 315.3626  44.5833 15.50136889256671
GAOFEN-3 02             
1 49495U 21109A   26159.51542338  .00000059  00000+0  31063-4 0  9998
2 49495  98.4092 167.7356 0003478  37.0589 323.0840 14.42216045239063
GLOBAL-12               
1 49772U 21115BA  26159.51611628  .00030990  00000+0  49309-3 0  9990
2 49772  53.1950  86.2166 0003474  51.2175 308.9146 15.53042953254551
GLOBAL-13               
1 49773U 21115BB  26159.13314256  .00016955  00000+0  35368-3 0  9991
2 49773  53.1969  97.6177 0004205  88.5576 271.5914 15.45687779254360
GLOBAL-17               
1 49949U 21120A   26159.14398119  .00029936  00000+0  48989-3 0  9999
2 49949  41.9937 103.1616 0014140 197.3391 162.6972 15.51778199253490
GLOBAL-16               
1 49950U 21120B   26159.08095039  .00027243  00000+0  48054-3 0  9991
2 49950  41.9945 107.0997 0011954 189.1366 170.9261 15.49742363253435
XW-3 (CAS-9)            
1 50466U 21131B   26159.51602719  .00000640  00000+0  21143-3 0  9996
2 50466  98.4973 251.9529 0005230 116.7476 243.4249 14.41350415233866
ION SCV-004             
1 50993U 22002K   26159.21167695  .00004965  00000+0  17148-3 0  9999
2 50993  97.2838 217.0393 0008120  37.8071 322.3739 15.30363398243927
ETV-A1                  
1 51060U 22002CE  26159.24515336  .00011737  00000+0  29121-3 0  9996
2 51060  97.2878 225.5773 0005508  34.7931 325.3674 15.40497916244467
BRO-5                   
1 51061U 22002CF  26159.26067899  .00024445  00000+0  48711-3 0  9991
2 51061  97.2997 232.8538 0004458  10.8149 349.3196 15.46874473244872
LUDI TANCE 1-01A (L-SA*)
1 51284U 22007A   26159.50886356  .00000564  00000+0  66763-4 0  9991
2 51284  97.8103 167.0522 0001575  90.7352 269.4045 14.88411175237188
LUDI TANCE 1-01B (L-SA*)
1 51822U 22018A   26159.54245304  .00000699  00000+0  81323-4 0  9995
2 51822  97.8109 167.0811 0001601  92.2748 267.8652 14.88407961232425
2022-023F               
1 51951U 22023F   26159.51445566  .00013394  00000+0  53608-3 0  9993
2 51951  63.4454 302.9644 0129320 342.7785  16.8958 15.17930384236391
