OBJECT_NAME,OBJECT_ID,EPOCH,MEAN_MOTION,ECCENTRICITY,INCLINATION,RA_OF_ASC_NODE,ARG_OF_PERICENTER,MEAN_ANOMALY,EPHEMERIS_TYPE,CLASSIFICATION_TYPE,NORAD_CAT_ID,ELEMENT_SET_NO,REV_AT_EPOCH,BSTAR,MEAN_MOTION_DOT,MEAN_MOTION_DDOT
PACE-1,2021-059AG,2026-06-08T11:20:42.144864,15.78377969,.0000751,97.6789,356.6403,334.7734,25.3495,0,U,48909,999,27642,.43035E-3,.74341E-3,0
YAM-3,2021-059AN,2026-06-08T11:20:22.677216,15.48360580,.0005786,97.6997,345.8601,40.2754,319.8923,0,U,48915,999,27564,.20069E-3,.10527E-3,0
FARADAY_PHOENIX,2021-059AX,2026-06-08T12:36:03.189024,15.76276797,.0002545,97.6835,356.6036,350.4132,9.7083,0,U,48924,999,27629,.80723E-3,.128025E-2,0
DEMO8 (TENZING),2021-059CA,2026-06-08T11:43:41.842272,15.54663088,.0007008,97.7037,352.2479,27.8238,332.3389,0,U,48951,999,27595,.27482E-3,.18125E-3,0
NAPA-2,2021-059CN,2026-06-08T08:45:33.101280,15.95264426,.0002566,97.6739,357.3057,253.8269,106.2724,0,U,48963,999,27640,.62698E-3,.244268E-2,.25449E-4
FENGYUN 3E,2021-062A,2026-06-08T12:49:20.115840,14.19904217,.0002743,98.7497,163.0390,99.3407,260.8080,0,U,49008,999,25535,.85256E-4,.137E-5,0
ISS (NAUKA),2021-066A,2026-06-08T06:55:01.494336,15.49664883,.0006937,51.6333,344.1431,146.3340,213.8090,0,U,49044,999,57041,.12624E-3,.6674E-4,0
STARLINK-3100,2021-082Q,2026-06-08T03:52:08.010912,14.98328527,.0002948,70.0004,66.3378,273.4642,86.6180,0,U,49144,999,25953,.74577E-4,.797E-5,0
CUTE,2021-088D,2026-06-08T04:45:26.803296,15.90362536,.0007897,97.4199,257.6397,249.4863,110.5562,0,U,49263,999,26112,.41548E-3,.125481E-2,.78946E-5
2021-091B,2021-091B,2026-06-08T13:25:46.437600,15.18511316,.001507,97.4481,347.2658,72.5131,287.7749,0,U,49316,999,25767,.13742E-3,.2775E-4,0
SDGSAT 1,2021-100A,2026-06-08T12:58:23.596032,15.19887443,.0007191,97.2639,206.8111,334.7287,25.3595,0,U,49387,999,25460,.1766E-3,.3727E-4,0
TEIKYOSAT-4 (OORURI),2021-102B,2026-06-08T12:04:23.470752,15.09477838,.0011118,97.3672,189.3240,329.9080,30.1510,0,U,49396,999,25141,.15587E-3,.2438E-4,0
Z-SAT,2021-102E,2026-06-08T11:57:16.470720,15.18204443,.0014899,97.3333,195.0849,279.1013,80.8535,0,U,49399,999,25212,.27321E-3,.5537E-4,0
HIBARI,2021-102F,2026-06-08T09:10:21.904608,15.31552178,.0010511,97.3245,205.3871,224.0979,135.9425,0,U,49400,999,25284,.29428E-3,.8905E-4,0
KOSEN-1,2021-102H,2026-06-08T00:45:29.881440,15.26710328,.00123482,97.3192,201.3673,235.0844,124.9235,0,U,49402,999,25262,.29937242E-3,.7809E-4,0
GLOBAL-14,2021-106A,2026-06-07T19:25:47.765568,15.50136889,.00171908,42.0063,346.7937,315.3626,44.5833,0,U,49469,999,25667,.50178634E-3,.28961E-3,0
GAOFEN-3 02,2021-109A,2026-06-08T12:22:12.580032,14.42216045,.0003478,98.4092,167.7356,37.0589,323.0840,0,U,49495,999,23906,.31063E-4,.59E-6,0
GLOBAL-12,2021-115BA,2026-06-08T12:23:12.446592,15.53042953,.0003474,53.1950,86.2166,51.2175,308.9146,0,U,49772,999,25455,.49309E-3,.3099E-3,0
GLOBAL-13,2021-115BB,2026-06-08T03:11:43.517184,15.45687779,.00042054,53.1969,97.6177,88.5576,271.5914,0,U,49773,999,25436,.35367518E-3,.16955E-3,0
GLOBAL-17,2021-120A,2026-06-08T03:27:19.974816,15.51778199,.00141403,41.9937,103.1616,197.3391,162.6972,0,U,49949,999,25349,.48989462E-3,.29936E-3,0
GLOBAL-16,2021-120B,2026-06-08T01:56:34.113696,15.49742363,.0011954,41.9945,107.0997,189.1366,170.9261,0,U,49950,999,25343,.48053821E-3,.27243E-3,0
XW-3 (CAS-9),2021-131B,2026-06-08T12:23:04.749216,14.41350415,.000523,98.4973,251.9529,116.7476,243.4249,0,U,50466,999,23386,.21143E-3,.64E-5,0
ION SCV-004,2022-002K,2026-06-08T05:04:48.888480,15.30363398,.00081208,97.2838,217.0393,37.8071,322.3739,0,U,50993,999,24392,.17148499E-3,.4965E-4,0
ETV-A1,2022-002CE,2026-06-08T05:53:01.250304,15.40497916,.0005508,97.2878,225.5773,34.7931,325.3674,0,U,51060,999,24446,.29121345E-3,.11737E-3,0
BRO-5,2022-002CF,2026-06-08T06:15:22.664736,15.46874473,.00044588,97.2997,232.8538,10.8149,349.3196,0,U,51061,999,24487,.48711457E-3,.24445E-3,0
LUDI TANCE 1-01A (L-SAR 01A),2022-007A,2026-06-08T12:12:45.811584,14.88411175,.0001575,97.8103,167.0522,90.7352,269.4045,0,U,51284,999,23718,.66763E-4,.564E-5,0
LUDI TANCE 1-01B (L-SAR 01B),2022-018A,2026-06-08T13:01:07.942656,14.88407961,.0001601,97.8109,167.0811,92.2748,267.8652,0,U,51822,999,23242,.81323E-4,.699E-5,0
2022-023F,2022-023F,2026-06-08T12:20:48.969024,15.17930384,.012932,63.4454,302.9644,342.7785,16.8958,0,U,51951,999,23639,.53608E-3,.13394E-3,0
